{
  "norad_id": 65053,
  "name": "NISAR",
  "history": [
    {
      "epoch": "2026-03-28T21:51:27.074592",
      "apogee_km": 751.1067900085081,
      "perigee_km": 749.3661837704785,
      "latitude_deg": 52.36803693282583,
      "longitude_deg": 52.730082880239934,
      "semi_major_axis_km": 7128.373486889493,
      "eccentricity": 0.00012209,
      "inclination_deg": 98.406,
      "raan_deg": 276.7419,
      "arg_perigee_deg": 87.2621,
      "mean_anomaly_deg": 272.8709,
      "mean_motion_rev_day": 14.42504221
    },
    {
      "epoch": "2026-03-29T04:30:59.228064",
      "apogee_km": 751.1125789446196,
      "perigee_km": 749.3418932683717,
      "latitude_deg": 50.346168141656186,
      "longitude_deg": 79.36580896005034,
      "semi_major_axis_km": 7128.364236106496,
      "eccentricity": 0.0001242,
      "inclination_deg": 98.406,
      "raan_deg": 277.0156,
      "arg_perigee_deg": 89.0244,
      "mean_anomaly_deg": 271.1088,
      "mean_motion_rev_day": 14.42507029
    }
  ]
}